{"type": "FeatureCollection", "features": [ {"type": "Feature", "properties": {"norad_id": 49810, "name": "GSAT0224 (GALILEO 28)", "group": "gnss", "lat": 56.823240475321604, "lon": 66.85869827422378, "alt_km": 23226.59958242393, "timestamp": "2025-12-19T10:50:01.444356+00:00", "meta": {"OBJECT_NAME": "GSAT0224 (GALILEO 28)", "OBJECT_ID": "2021-116B", "EPOCH": "2025-12-18T10:12:29.028672", "MEAN_MOTION": 1.70476126, "ECCENTRICITY": 0.00037733, "INCLINATION": 57.2191, "RA_OF_ASC_NODE": 346.558, "ARG_OF_PERICENTER": 258.3671, "MEAN_ANOMALY": 276.634, "EPHEMERIS_TYPE": 0, "CLASSIFICATION_TYPE": "U", "NORAD_CAT_ID": 49810, "ELEMENT_SET_NO": 999, "REV_AT_EPOCH": 2512, "BSTAR": 0, "MEAN_MOTION_DOT": -7.5e-07, "MEAN_MOTION_DDOT": 0}, "tle": {"line1": "1 49810U 21116B   25352.42533598 -.00000075  00000+0  00000+0 0  9990", "line2": "2 49810  57.2191 346.5580 0003773 258.3671 276.6340  1.70476126 25124"}}, "geometry": {"type": "Point", "coordinates": [66.85869827422378, 56.823240475321604]}}, {"type": "Feature", "properties": {"norad_id": 52984, "name": "COSMOS 2557 (706K)", "group": "gnss", "lat": 46.21570948862762, "lon": -9.208368372258457, "alt_km": 19149.503517559435, "timestamp": "2025-12-19T10:50:01.444368+00:00", "meta": {"OBJECT_NAME": "COSMOS 2557 (706K)", "OBJECT_ID": "2022-075A", "EPOCH": "2025-12-17T23:22:55.877376", "MEAN_MOTION": 2.13101861, "ECCENTRICITY": 0.00136329, "INCLINATION": 64.4068, "RA_OF_ASC_NODE": 320.867, "ARG_OF_PERICENTER": 277.443, "MEAN_ANOMALY": 82.3946, "EPHEMERIS_TYPE": 0, "CLASSIFICATION_TYPE": "U", "NORAD_CAT_ID": 52984, "ELEMENT_SET_NO": 999, "REV_AT_EPOCH": 2685, "BSTAR": 0, "MEAN_MOTION_DOT": -6.7e-07, "MEAN_MOTION_DDOT": 0}, "tle": {"line1": "1 52984U 22075A   25351.97425784 -.00000067  00000+0  00000+0 0  9998", "line2": "2 52984  64.4068 320.8670 0013632 277.4430  82.3946  2.13101861 26852"}}, "geometry": {"type": "Point", "coordinates": [-9.208368372258457, 46.21570948862762]}}, {"type": "Feature", "properties": {"norad_id": 54031, "name": "COSMOS 2559 (707K)", "group": "gnss", "lat": -10.764379532919008, "lon": 146.12083534549748, "alt_km": 19102.22233668211, "timestamp": "2025-12-19T10:50:01.444381+00:00", "meta": {"OBJECT_NAME": "COSMOS 2559 (707K)", "OBJECT_ID": "2022-130A", "EPOCH": "2025-12-18T06:18:18.086112", "MEAN_MOTION": 2.1310139, "ECCENTRICITY": 0.00116356, "INCLINATION": 64.3791, "RA_OF_ASC_NODE": 320.9467, "ARG_OF_PERICENTER": 192.0675, "MEAN_ANOMALY": 167.8974, "EPHEMERIS_TYPE": 0, "CLASSIFICATION_TYPE": "U", "NORAD_CAT_ID": 54031, "ELEMENT_SET_NO": 999, "REV_AT_EPOCH": 2483, "BSTAR": 0, "MEAN_MOTION_DOT": -6.5e-07, "MEAN_MOTION_DDOT": 0}, "tle": {"line1": "1 54031U 22130A   25352.26270933 -.00000065  00000+0  00000+0 0  9990", "line2": "2 54031  64.3791 320.9467 0011635 192.0675 167.8974  2.13101390 24831"}}, "geometry": {"type": "Point", "coordinates": [146.12083534549748, -10.764379532919008]}}, {"type": "Feature", "properties": {"norad_id": 54377, "name": "COSMOS 2564 (761)", "group": "gnss", "lat": -42.609731467013894, "lon": 172.92506464016597, "alt_km": 19141.60696874583, "timestamp": "2025-12-19T10:50:01.444393+00:00", "meta": {"OBJECT_NAME": "COSMOS 2564 (761)", "OBJECT_ID": "2022-161A", "EPOCH": "2025-12-18T02:33:56.818368", "MEAN_MOTION": 2.13102096, "ECCENTRICITY": 0.00085664, "INCLINATION": 64.7385, "RA_OF_ASC_NODE": 198.7206, "ARG_OF_PERICENTER": 204.1296, "MEAN_ANOMALY": 155.9125, "EPHEMERIS_TYPE": 0, "CLASSIFICATION_TYPE": "U", "NORAD_CAT_ID": 54377, "ELEMENT_SET_NO": 999, "REV_AT_EPOCH": 2377, "BSTAR": 0, "MEAN_MOTION_DOT": 1.11e-06, "MEAN_MOTION_DDOT": 0}, "tle": {"line1": "1 54377U 22161A   25352.10690762  .00000111  00000+0  00000+0 0  9997", "line2": "2 54377  64.7385 198.7206 0008566 204.1296 155.9125  2.13102096 23774"}}, "geometry": {"type": "Point", "coordinates": [172.92506464016597, -42.609731467013894]}}, {"type": "Feature", "properties": {"norad_id": 55268, "name": "GPS BIII-6  (PRN 28)", "group": "gnss", "lat": -8.862064428850644, "lon": 149.32189594174497, "alt_km": 20174.399294983363, "timestamp": "2025-12-19T10:50:01.444404+00:00", "meta": {"OBJECT_NAME": "GPS BIII-6  (PRN 28)", "OBJECT_ID": "2023-009A", "EPOCH": "2025-12-17T11:51:56.668896", "MEAN_MOTION": 2.00555417, "ECCENTRICITY": 0.00037978, "INCLINATION": 55.1064, "RA_OF_ASC_NODE": 155.6587, "ARG_OF_PERICENTER": 358.2196, "MEAN_ANOMALY": 17.9493, "EPHEMERIS_TYPE": 0, "CLASSIFICATION_TYPE": "U", "NORAD_CAT_ID": 55268, "ELEMENT_SET_NO": 999, "REV_AT_EPOCH": 2160, "BSTAR": 0, "MEAN_MOTION_DOT": 7.7e-07, "MEAN_MOTION_DDOT": 0}, "tle": {"line1": "1 55268U 23009A   25351.49440589  .00000077  00000+0  00000+0 0  9991", "line2": "2 55268  55.1064 155.6587 0003797 358.2196  17.9493  2.00555417 21607"}}, "geometry": {"type": "Point", "coordinates": [149.32189594174497, -8.862064428850644]}}, {"type": "Feature", "properties": {"norad_id": 56564, "name": "BEIDOU-3 G4 (C62)", "group": "gnss", "lat": 0.7837675533365523, "lon": 50.82828141086867, "alt_km": 35791.47537255446, "timestamp": "2025-12-19T10:50:01.444418+00:00", "meta": {"OBJECT_NAME": "BEIDOU-3 G4 (C62)", "OBJECT_ID": "2023-066A", "EPOCH": "2025-12-18T22:37:01.053120", "MEAN_MOTION": 1.0027165, "ECCENTRICITY": 0.00027434, "INCLINATION": 0.8018, "RA_OF_ASC_NODE": 302.5246, "ARG_OF_PERICENTER": 226.6276, "MEAN_ANOMALY": 57.962, "EPHEMERIS_TYPE": 0, "CLASSIFICATION_TYPE": "U", "NORAD_CAT_ID": 56564, "ELEMENT_SET_NO": 999, "REV_AT_EPOCH": 958, "BSTAR": 0, "MEAN_MOTION_DOT": -8.5e-07, "MEAN_MOTION_DDOT": 0}, "tle": {"line1": "1 56564U 23066A   25352.94237330 -.00000085  00000+0  00000+0 0  9993", "line2": "2 56564   0.8018 302.5246 0002743 226.6276  57.9620  1.00271650  9587"}}, "geometry": {"type": "Point", "coordinates": [50.82828141086867, 0.7837675533365523]}}, {"type": "Feature", "properties": {"norad_id": 56759, "name": "NVS-01 (IRNSS-1J)", "group": "gnss", "lat": 2.0369762245066925, "lon": 20.454870406753745, "alt_km": 35799.70187668758, "timestamp": "2025-12-19T10:50:01.444431+00:00", "meta": {"OBJECT_NAME": "NVS-01 (IRNSS-1J)", "OBJECT_ID": "2023-076A", "EPOCH": "2025-12-18T22:28:16.890240", "MEAN_MOTION": 1.00274584, "ECCENTRICITY": 0.00087582, "INCLINATION": 2.6038, "RA_OF_ASC_NODE": 251.381, "ARG_OF_PERICENTER": 15.8615, "MEAN_ANOMALY": 287.1567, "EPHEMERIS_TYPE": 0, "CLASSIFICATION_TYPE": "U", "NORAD_CAT_ID": 56759, "ELEMENT_SET_NO": 999, "REV_AT_EPOCH": 930, "BSTAR": 0, "MEAN_MOTION_DOT": -3.07e-06, "MEAN_MOTION_DDOT": 0}, "tle": {"line1": "1 56759U 23076A   25352.93630660 -.00000307  00000+0  00000+0 0  9999", "line2": "2 56759   2.6038 251.3810 0008758  15.8615 287.1567  1.00274584  9306"}}, "geometry": {"type": "Point", "coordinates": [20.454870406753745, 2.0369762245066925]}}, {"type": "Feature", "properties": {"norad_id": 57517, "name": "COSMOS 2569 (703K)", "group": "gnss", "lat": -50.98531945125856, "lon": 43.96785719638786, "alt_km": 19109.02994520388, "timestamp": "2025-12-19T10:50:01.444442+00:00", "meta": {"OBJECT_NAME": "COSMOS 2569 (703K)", "OBJECT_ID": "2023-114A", "EPOCH": "2025-12-18T02:53:08.312640", "MEAN_MOTION": 2.13104042, "ECCENTRICITY": 0.00107503, "INCLINATION": 65.1969, "RA_OF_ASC_NODE": 78.7317, "ARG_OF_PERICENTER": 286.9993, "MEAN_ANOMALY": 72.9048, "EPHEMERIS_TYPE": 0, "CLASSIFICATION_TYPE": "U", "NORAD_CAT_ID": 57517, "ELEMENT_SET_NO": 999, "REV_AT_EPOCH": 1840, "BSTAR": 0, "MEAN_MOTION_DOT": -4.2e-07, "MEAN_MOTION_DDOT": 0}, "tle": {"line1": "1 57517U 23114A   25352.12023510 -.00000042  00000+0  00000+0 0  9992", "line2": "2 57517  65.1969  78.7317 0010750 286.9993  72.9048  2.13104042 18405"}}, "geometry": {"type": "Point", "coordinates": [43.96785719638786, -50.98531945125856]}}, {"type": "Feature", "properties": {"norad_id": 58654, "name": "BEIDOU-3 M28 (C50)", "group": "gnss", "lat": 18.055539090391665, "lon": 81.28073350050377, "alt_km": 21528.562225908754, "timestamp": "2025-12-19T10:50:01.444454+00:00", "meta": {"OBJECT_NAME": "BEIDOU-3 M28 (C50)", "OBJECT_ID": "2023-207A", "EPOCH": "2025-12-18T08:16:11.764704", "MEAN_MOTION": 1.86229821, "ECCENTRICITY": 0.00026501, "INCLINATION": 55.5892, "RA_OF_ASC_NODE": 68.4116, "ARG_OF_PERICENTER": 272.4264, "MEAN_ANOMALY": 87.5728, "EPHEMERIS_TYPE": 0, "CLASSIFICATION_TYPE": "U", "NORAD_CAT_ID": 58654, "ELEMENT_SET_NO": 999, "REV_AT_EPOCH": 1347, "BSTAR": 0, "MEAN_MOTION_DOT": -6.6e-07, "MEAN_MOTION_DDOT": 0}, "tle": {"line1": "1 58654U 23207A   25352.34458061 -.00000066  00000+0  00000+0 0  9991", "line2": "2 58654  55.5892  68.4116 0002650 272.4264  87.5728  1.86229821 13471"}}, "geometry": {"type": "Point", "coordinates": [81.28073350050377, 18.055539090391665]}}, {"type": "Feature", "properties": {"norad_id": 58655, "name": "BEIDOU-3 M26 (C48)", "group": "gnss", "lat": 18.22879524110057, "lon": -124.64836530838015, "alt_km": 21527.886332852762, "timestamp": "2025-12-19T10:50:01.444465+00:00", "meta": {"OBJECT_NAME": "BEIDOU-3 M26 (C48)", "OBJECT_ID": "2023-207B", "EPOCH": "2025-12-17T14:31:30.894816", "MEAN_MOTION": 1.86231346, "ECCENTRICITY": 0.0004016, "INCLINATION": 55.5906, "RA_OF_ASC_NODE": 68.4229, "ARG_OF_PERICENTER": 258.0544, "MEAN_ANOMALY": 101.9267, "EPHEMERIS_TYPE": 0, "CLASSIFICATION_TYPE": "U", "NORAD_CAT_ID": 58655, "ELEMENT_SET_NO": 999, "REV_AT_EPOCH": 1344, "BSTAR": 0, "MEAN_MOTION_DOT": -7.2e-07, "MEAN_MOTION_DDOT": 0}, "tle": {"line1": "1 58655U 23207B   25351.60521869 -.00000072  00000+0  00000+0 0  9994", "line2": "2 58655  55.5906  68.4229 0004016 258.0544 101.9267  1.86231346 13443"}}, "geometry": {"type": "Point", "coordinates": [-124.64836530838015, 18.22879524110057]}}]}